#dP2022  7 21  0  0  0.00000000      96 __u+U ITR00 FIT  IAC
## 2219 345600.00000000   900.00000000 59781 0.0000000000000
+  116   C06C07C08C09C10C11C12C13C14C16C19C20C21C22C23C24C25
+        C26C27C28C29C30C32C33C34C35C36C37C38C39C40C41C42C43
+        C44C45C46E01E02E03E04E05E07E08E09E10E11E12E13E14E15
+        E18E19E21E24E25E26E27E30E31E33E34E36G01G02G03G04G05
+        G06G07G08G09G10G11G12G13G14G15G16G17G18G19G20G21G22
+        G23G24G25G26G27G28G29G30G31G32J02J03R01R02R03R04R05
+        R07R08R09R11R12R13R14R15R17R18R19R20R21R24  0  0  0
++         8  8  6  8  8  8  7  7 10  7  6  6  6  6  6  6  6
++         7  6  8  7  6  6  7  7  7  5  7  8  7  8  8  8  7
++         7  6  6  5  7  6  5  6  6  5  5  6  6  7  6  6  6
++         7  7  6  5  6  5  5  6  5  6  6  4  6  6  5  5  6
++         6  6  4  5  9  6  7  6  5  4  7  6  5  5  6  6  5
++         6  4  5  6  5  6  7  7  4  6  8  7  7  6  5  7  7
++         7  8  7  6  7  7  6  6  7  7  7  6  7  7  0  0  0
%c M  cc GPS ccc cccc cccc cccc cccc ccccc ccccc ccccc ccccc
%c cc cc ccc ccc cccc cccc cccc cccc ccccc ccccc ccccc ccccc
%f  0.0000000  0.000000000  0.00000000000  0.000000000000000
%f  0.0000000  0.000000000  0.00000000000  0.000000000000000
%i    0    0    0    0      0      0      0      0         0
%i    0    0    0    0      0      0      0      0         0
/* INFORMATION & ANALYSIS CENTER (IAC)      ULTRA-RAPID DATA
/* S/V CLOCKS ARE ALIGNED TO GNSS TIME                      
/* G:C1WC2W R:C1PC2P E:C1XC5X C:C2IC6I J:C1CC2S             
/* PCV:IGS14_2215 OL/AL:FES2004  NONE     YN ORB:CoN CLK:CoN
*  2022 07 21  3 30  0.00000000
PC06 -10968.524531  23303.386039 -33392.463016    438.002855
PC07 -14052.133295  39025.499966   7039.919636   -456.897131
PC08   1902.928465  34223.231118  24650.336299    412.136190
PC09  -2634.892584  24193.657961 -34053.555589   -921.244430
PC10  -8381.274604  39082.005487  12845.107442    116.602561
PC11 -14066.157741  13069.481087  20294.998203    486.959645
PC12 -26836.783213   4058.805706   6468.160923   -572.036528
PC13   5489.157659  36576.713038  20616.215444     29.903029
PC14 -13658.734868  24297.049897     68.322309    550.828624
PC16 -13845.531438  22100.610340 -32978.451582    143.316593
PC19   6979.387229 -25412.159915   9239.003649   -254.355521
PC20  17442.928723 -20425.187056  -7624.190195   -963.970159
PC21 -18100.161713   2685.780276  21075.219809    -24.087313
PC22  -7929.484195 -15957.659553  21482.026565   -962.947670
PC23  15589.452061  23008.165738   2525.535862   -948.570200
PC24 -12889.183483  10151.233450 -22575.582624   -967.656774
PC25   3364.120246  24090.071484 -13698.322370   -704.595519
PC26 -19869.713778  -7325.267050 -18164.384696    706.634584
PC27  27765.598105   1615.228855   2199.757691    757.433137
PC28  18173.502492  12097.973984  17384.794354     92.400224
PC29   2365.365783 -15932.389495 -22798.772751    584.493264
PC30  21794.092026 -10456.991646 -13939.308052    501.318707
PC32  18075.797626  -2799.060591 -21066.742993      0.078670
PC33  -6895.031932  25443.524129  -9121.826132   -215.139566
PC34 -21037.349998  10952.811055  14703.741728   -354.212127
PC35 -17516.469202 -12052.899465 -18100.587159    375.352603
PC36  -2314.558342 -23957.326619  14152.101337   -972.129453
PC37  19848.683414   9033.648060  17443.586392   -919.507066
PC38  -5038.763531  30416.005280  28838.746400     11.574353
PC39 -19576.851807  21357.949180 -30668.260270     -0.084535
PC40 -21196.455544  35990.248548   4779.373708     -0.905205
PC41   7633.415848  16344.568401 -21240.802639    -97.655609
PC42 -17814.973156  19641.154904   8697.623393   -952.866351
PC43  -3284.967521  15994.990936  22618.888701      4.112180
PC44 -27804.571550   -801.840285  -2436.716908    730.730385
PC45 -15726.272266 -22866.031569  -2824.788444    814.300777
PC46  11749.735474 -11621.002829  22492.413263   -443.023512
PE01  12126.736308  20454.025337  17633.991927   -519.147687
PE02 -12202.378189 -20297.461700 -17746.024507    313.261759
PE03 -16324.551999  -9113.268111  22945.779015   -581.132989
PE04  26620.244326  -6734.638227 -11050.276706  -1075.917180
PE05   3779.052018 -19915.002331  21577.317417   -161.045048
PE07 -21377.012461  18966.736322  -7679.608773   -689.373643
PE08 -26584.771368   6990.593082  10964.653913   -567.225998
PE09  21354.812515 -19004.727591   7718.732789   -594.811318
PE10  21411.734492  -3100.308644 -20220.382485   -501.948803
PE11  12816.067437 -10963.158292 -24341.672943   2935.551794
PE12  26101.827338   4781.485651 -13112.469586    -72.926797
PE13 -13463.194086  10405.441132  24215.950310    429.904649
PE14 -24869.135551   1763.465190  -8915.116448  -1773.057550
PE15 -26148.600057  -4900.193336  12975.524947    731.971231
PE18  27013.998309 -14248.228831  -4745.354886  -1189.851858
PE19  14030.354843  10862.024979 -23683.847949  -5035.148465
PE21   1457.366024  29510.893658   1758.875234   -747.110069
PE24  11493.111098 -21372.415437  16931.978497   -736.271055
PE25  -1253.815382 -29537.692603  -1459.746147   -581.777965
PE26   7859.941967  19789.753382  20558.827814  -1401.044843
PE27 -10819.163663  22311.825504 -16159.658839   -349.590455
PE30 -16712.892447    918.868305 -24416.418420   -689.053186
PE31  16625.294364  -2045.135238  24417.194930   -500.270923
PE33  23344.568744  17229.334929   5848.393145   -454.519655
PE34 -23461.562334 -17121.526375  -5690.376195   -486.886002
PE36  -7014.828357 -19482.713484 -21158.340721   -405.141987
PG01 -22435.326783 -14285.057131   2528.930039    317.395890
PG02  10289.230440  18997.394735  15997.516778   -651.014170
PG03 -12593.384301 -11806.282913  20097.515284   -312.556189
PG04 -19747.196367  -4713.886127  17180.555878   -143.399571
PG05   6790.425557  23026.926118 -11379.383905    -89.901694
PG06  -5656.254245  13825.757000  22015.065611    393.449339
PG07 -21530.730113  -1913.657126 -15339.476554    318.488053
PG08 -13283.352624  -9731.122822 -20947.615668    -77.075336
PG09 -24601.735206   5205.652955   8541.359814   -316.925300
PG10  11422.293332 -19001.293432 -14252.431963   -499.295799
PG11   6775.140703  19840.116922  16317.237657    -10.458247
PG12  10624.317841  15139.856126  18837.237594   -249.646101
PG13   2899.068414  14882.632301 -21956.755747    352.445862
PG14 -13108.415977  17420.815964 -15094.648991   -111.536961
PG15  14550.390596   9101.345364 -20754.979323    -43.778762
PG16   -243.052259 -25435.517108  -7039.808112   -516.492451
PG17 -21591.570867  13796.936912   7524.881025    639.250096
PG18  20976.657547   1643.067456 -16295.505696    107.027115
PG19 -15374.046339  15586.318232  14617.414268    186.461383
PG20    891.548658  26643.028469   1225.064998    501.496360
PG21 -20075.454172 -16708.363252  -5931.642842    161.014539
PG22  12179.991957 -16896.344479  16797.576715    295.885557
PG23  14571.680624  -8766.809968 -20384.621207    -33.814127
PG24  22144.217104  14962.965985  -2135.138970    191.449200
PG25  15183.154498    496.274657  21493.843856    351.572418
PG26   3931.265128 -25756.913193   4123.191016    219.374195
PG27    414.770573 -16151.194988 -21220.740637    220.904798
PG28  -9219.718478  23960.684970  -6750.141065    336.102296
PG29  25007.760779  -3307.282806   8390.169364   -535.481847
PG30 -14796.872720   7938.817536 -20536.598111   -534.431388
PG31   3909.005566 -15578.740474  20943.575176   -186.557267
PG32  19055.184499 -16028.813202   9111.807171   -181.783952
PJ02 -21353.142017  28482.940897 -17946.935180     -1.957791
PJ03 -27576.946428  24679.600489  25190.701622     -0.205167
PR01  14891.567837  -2891.720642 -20510.288442     11.816145
PR02  17949.147531 -17286.936306  -5250.711484    524.734122
PR03   9646.244715 -20343.757788  11980.842996     60.561414
PR04  -3578.662252 -11888.030547  22309.164546    151.342679
PR05 -15031.336899   2971.555337  20411.387463     96.564489
PR07  -9262.773286  20221.785522 -12492.032416     38.151981
PR08   3758.055559  11863.963885 -22213.415150    -66.315418
PR09  -7686.756786  10266.582630 -22014.539798     66.883094
PR11  11099.665650  22424.030087   4932.094465     32.706478
PR12  13394.910477   8581.040185  19975.698365     19.404601
PR13   8157.307870  -8845.410952  22483.780694    -24.831313
PR14  -2611.184770 -22674.057896  11431.060138     24.806325
PR15 -11166.483442 -22192.455539  -5778.291274     94.580979
PR17   2015.849958 -10356.432640 -23222.350276    545.304177
PR18 -15459.993353 -10777.107090 -17206.673026     33.697914
PR19 -24342.654691  -6814.514669  -3388.156853   -197.065467
PR20 -19640.696257   2980.560122  16023.518029    -75.011929
PR21   -273.380966  10573.356238  23205.777971   -319.070037
PR24  19125.388921  -4149.087801 -16362.612810    104.634370
EOF
